KUIPER-00053            
1 64513U 25134P   25201.38500476  .00021397  00000+0  60397-3 0  9996
2 64513  51.8774 200.9754 0001883 191.7568 168.3375 15.36322307  5388
KUIPER-00054            
1 64514U 25134Q   25201.25846285  .00032155  00000+0  90546-3 0  9997
2 64514  51.8767 201.6276 0002733 183.1523 176.9447 15.36165439  5363
KUIPER-00055            
1 64515U 25134R   25201.37733757  .00018156  00000+0  50712-3 0  9996
2 64515  51.8767 200.9269 0000811  57.1088 302.9976 15.36763432  5386
KUIPER-00056            
1 64516U 25134S   25200.74151971  .00019523  00000+0  56028-3 0  9994
2 64516  51.8743 204.1591 0003415 188.5197 171.5732 15.35861923  5280
KUIPER-00057            
1 64517U 25134T   25201.27622892  .00012820  00000+0  38203-3 0  9997
2 64517  51.8691 201.7350 0006546 200.0586 160.0143 15.35007985  5367
KUIPER-00058            
1 64518U 25134U   25201.52851442  .00025712  00000+0  74117-3 0  9999
2 64518  51.8724 200.4309 0004649 200.9859 159.0937 15.35547550  5400
KUIPER-00059            
1 64519U 25134V   25201.57392657  .00023022  00000+0  64125-3 0  9993
2 64519  51.8769 199.9923 0001271 115.5138 244.5980 15.36691678  5414
KUIPER-00060            
1 64520U 25134W   25201.38285108  .00026564  00000+0  74266-3 0  9997
2 64520  51.8750 200.9628 0001688 140.6970 219.4140 15.36492270  5377
